{
    "links": {
        "self": "http://www.neowsapp.com/rest/v1/neo/3840838?api_key=iIulBulltgU6a56xZRHN4H3l9WmuAYTsLGpBGhQ2"
    },
    "id": "3840838",
    "neo_reference_id": "3840838",
    "name": "(2019 GF3)",
    "designation": "2019 GF3",
    "nasa_jpl_url": "http://ssd.jpl.nasa.gov/sbdb.cgi?sstr=3840838",
    "absolute_magnitude_h": 24.0,
    "estimated_diameter": {
        "kilometers": {
            "estimated_diameter_min": 0.0421264611,
            "estimated_diameter_max": 0.0941976306
        },
        "meters": {
            "estimated_diameter_min": 42.1264610556,
            "estimated_diameter_max": 94.1976305719
        },
        "miles": {
            "estimated_diameter_min": 0.0261761612,
            "estimated_diameter_max": 0.0585316759
        },
        "feet": {
            "estimated_diameter_min": 138.2101784897,
            "estimated_diameter_max": 309.0473542854
        }
    },
    "is_potentially_hazardous_asteroid": false,
    "close_approach_data": [
        {
            "close_approach_date": "2019-03-24",
            "close_approach_date_full": "2019-Mar-24 11:35",
            "epoch_date_close_approach": 1553427300000,
            "relative_velocity": {
                "kilometers_per_second": "29.2328635329",
                "kilometers_per_hour": "105238.308718526",
                "miles_per_hour": "65390.9924367975"
            },
            "miss_distance": {
                "astronomical": "0.0323429448",
                "lunar": "12.5814055272",
                "kilometers": "4838435.651607576",
                "miles": "3006464.5022975088"
            },
            "orbiting_body": "Earth"
        }
    ],
    "orbital_data": {
        "orbit_id": "3",
        "orbit_determination_date": "2019-04-27 07:09:17",
        "first_observation_date": "2019-04-04",
        "last_observation_date": "2019-04-11",
        "data_arc_in_days": 7,
        "observations_used": 17,
        "orbit_uncertainty": "9",
        "minimum_orbit_intersection": ".0284837",
        "jupiter_tisserand_invariant": "3.046",
        "epoch_osculation": "2458581.5",
        "eccentricity": ".8421005283845263",
        "semi_major_axis": "2.212619398740913",
        "inclination": "9.270945002908023",
        "ascending_node_longitude": "192.5665424642413",
        "orbital_period": "1202.149556025354",
        "perihelion_distance": ".3493714339473372",
        "perihelion_argument": "234.8294690240162",
        "aphelion_distance": "4.075867363534488",
        "perihelion_time": "2458524.544656237368",
        "mean_anomaly": "17.05605068169662",
        "mean_motion": ".2994635718955483",
        "equinox": "J2000",
        "orbit_class": {
            "orbit_class_type": "APO",
            "orbit_class_description": "Near-Earth asteroid orbits which cross the Earth’s orbit similar to that of 1862 Apollo",
            "orbit_class_range": "a (semi-major axis) > 1.0 AU; q (perihelion) < 1.017 AU"
        }
    },
    "is_sentry_object": false
}